TKSAT-1 (TUPAC KATARI)  
1 39481U 13075A   26019.92033697 -.00000181  00000+0  00000+0 0  9997
2 39481   0.0135 134.4569 0002623 165.4907  63.4818  1.00271132 44110
EXPRESS-AM5             
1 39487U 13077A   26019.96531723 -.00000266  00000+0  00000+0 0  9996
2 39487   0.0186  46.0536 0002047 274.2847 286.5473  1.00272952 44875
GSAT-14                 
1 39498U 14001A   26019.95223049 -.00000062  00000+0  00000+0 0  9998
2 39498   0.0758 257.4969 0004954  32.1158 246.5025  1.00270453 43899
THAICOM 6               
1 39500U 14002A   26019.73917576 -.00000107  00000+0  00000+0 0  9994
2 39500   0.0639 106.8351 0001726 244.7802 112.1159  1.00271161 43976
TDRS 12                 
1 39504U 14004A   26019.92952368 -.00000256  00000+0  00000+0 0  9994
2 39504   3.8368  16.4498 0005992 259.9028 136.6702  1.00268459 42795
ABS-2                   
1 39508U 14006A   26019.95249049 -.00000072  00000+0  00000+0 0  9994
2 39508   0.0195  46.5699 0003211 245.1618 245.4240  1.00271666 43798
ATHENA-FIDUS            
1 39509U 14006B   26019.94512377  .00000168  00000+0  00000+0 0  9996
2 39509   0.0305  99.3337 0000940 228.7183 169.3059  1.00271245 43602
TURKSAT 4A              
1 39522U 14007A   26019.94590377  .00000160  00000+0  00000+0 0  9990
2 39522   0.0768 279.3710 0004452  12.7048 209.7836  1.00269385 43488
EXPRESS-AT1             
1 39612U 14010A   26019.87742249  .00000093  00000+0  00000+0 0  9998
2 39612   0.0159 303.6546 0000606 241.4196 306.0559  1.00273128 43339
EXPRESS-AT2             
1 39613U 14010B   26019.96531723 -.00000267  00000+0  00000+0 0  9996
2 39613   0.0136 351.4491 0001854 287.7989 327.4513  1.00273231 43011
AMAZONAS 4A             
1 39616U 14011A   26019.92293698 -.00000238  00000+0  00000+0 0  9990
2 39616   0.0646 202.9211 0004134  66.9991 107.6548  1.00272074 43227
ASTRA 5B                
1 39617U 14011B   26019.94226375  .00000151  00000+0  00000+0 0  9994
2 39617   0.0590 318.3919 0004016 333.8289 189.8076  1.00270105 43184
IRNSS-1B                
1 39635U 14017A   26017.88717101  .00000163  00000+0  00000+0 0  9996
2 39635  29.1903 242.9720 0018952 178.3563  70.4262  1.00273530 43285
LUCH-5V                 
1 39727U 14023A   26019.67105534 -.00000257  00000+0  00000+0 0  9990
2 39727   4.7636  71.2050 0003466 237.7330 146.4250  1.00273255 42873
KAZSAT-3                
1 39728U 14023B   26019.94919713  .00000075  00000+0  00000+0 0  9990
2 39728   0.0181   4.9161 0000155 134.2781  20.3214  1.00270143 40979
EUTELSAT 3B             
1 39773U 14030A   26019.93819039  .00000034  00000+0  00000+0 0  9992
2 39773   0.0611  12.5283 0003116 234.0564 213.5713  1.00272406 42588
ASIASAT 8 (AMOS-7)      
1 40107U 14046A   26019.95847052 -.00000319  00000+0  00000+0 0  9997
2 40107   0.0143  66.5102 0000912 242.8208 260.3560  1.00271954100664
ASIASAT 6               
1 40141U 14052A   26019.96133054  .00000000  00000+0  00000+0 0  9999
2 40141   0.0208 286.7422 0000855 342.3935 316.1992  1.00269348 41582
OPTUS 10                
1 40146U 14054A   26019.89719683 -.00000133  00000+0  00000+0 0  9994
2 40146   0.0648  58.7919 0002397 241.1316 298.3395  1.00270839 41546
MEASAT-3B               
1 40147U 14054B   26019.95578384 -.00000227  00000+0  00000+0 0  9997
2 40147   0.0273  27.6470 0002205 327.7253 199.5451  1.00271517 41423
HIMAWARI-8              
1 40267U 14060A   26019.96549057  .00000000  00000+0  00000+0 0  9991
2 40267   0.0177 245.6209 0000897  72.8326 289.1144  1.00269114 41273
IRNSS-1C                
1 40269U 14061A   26019.74012911 -.00000150  00000+0  00000+0 0  9991
2 40269   6.1385  91.8598 0018344 359.0740  17.6170  1.00269121 41205
INTELSAT 30 (IS-30)     
1 40271U 14062A   26019.84743565 -.00000136  00000+0  00000+0 0  9996
2 40271   0.0114  47.5098 0001588  60.0437 221.6884  1.00270335  5307
ARSAT 1                 
1 40272U 14062B   26019.92337031 -.00000245  00000+0  00000+0 0  9994
2 40272   0.0361 298.4796 0001448 352.6628  88.7659  1.00270728 41130
EUTELSAT 53A            
1 40277U 14064A   26019.94815713  .00000112  00000+0  00000+0 0  9993
2 40277   0.0189 309.7219 0000963  64.1873 139.7557  1.00273492 40085
GSAT-16                 
1 40332U 14078A   26019.94850380  .00000099  00000+0  00000+0 0  9993
2 40332   0.0352  95.8729 0002969 350.4102  69.5911  1.00271738 40627
DIRECTV 14              
1 40333U 14078B   26019.91791029 -.00000111  00000+0  00000+0 0  9991
2 40333   0.0201  47.8978 0000347 118.6177 183.9967  1.00272268 40551
YAMAL 401               
1 40345U 14082A   26019.95543718 -.00000214  00000+0  00000+0 0  9997
2 40345   0.0245 113.0670 0001257 330.6755 109.5041  1.00270933 40437
ASTRA 2G                
1 40364U 14089A   26019.94321709  .00000164  00000+0  00000+0 0  9991
2 40364   0.0487 346.4367 0002981  32.4917 108.1327  1.00270783 40483
FENGYUN 2G              
1 40367U 14090A   26019.67200867 -.00000291  00000+0  00000+0 0  9999
2 40367   5.2619  74.6399 0001413 187.4726 198.5453  1.00271391 40516
MUOS-3                  
1 40374U 15002A   26019.93446370 -.00000115  00000+0  00000+0 0  9996
2 40374   4.2367  42.7363 0056265 183.9539 213.5607  1.00272676 40109
INMARSAT 5-F2           
1 40384U 15005A   26019.92675034 -.00000271  00000+0  00000+0 0  9993
2 40384   0.0185  48.6043 0000486 326.7625  22.5605  1.00271193 39500
ABS-3A                  
1 40424U 15010A   26019.36633346 -.00000013  00000+0  00000+0 0  9996
2 40424   0.0144  43.2332 0001696 202.2741   2.1194  1.00269271 39885
EUTELSAT 115 WEST B     
1 40425U 15010B   26019.54666617 -.00000010  00000+0  00000+0 0  9991
2 40425   0.0018 161.6474 0000226 140.4597 258.7023  1.00270488 39903
EXPRESS-AM7             
1 40505U 15012A   26019.87421580  .00000165  00000+0  00000+0 0  9996
2 40505   0.0181  78.7256 0003178 224.4677 170.7704  1.00273628 39526
BEIDOU-3S IGSO-1S       
1 40549U 15019A   26019.60055530 -.00000160  00000+0  00000+0 0  9996
2 40549  49.4770 297.2580 0035796 192.8647 300.9417  1.00284633 39581
THOR 7                  
1 40613U 15022A   26019.93749706  .00000006  00000+0  00000+0 0  9991
2 40613   0.0017 143.3193 0002481 157.9499 154.8918  1.00271026 39330
TURKMENALEM52E/MONACOSAT
1 40617U 15023A   26019.80530285  .00000118  00000+0  00000+0 0  9996
2 40617   0.0414  89.9705 0002494 211.7160 159.4244  1.00273321 39363
DIRECTV 15              
1 40663U 15026A   26019.91721694 -.00000088  00000+0  00000+0 0  9995
2 40663   0.0163  60.7324 0000439  82.6252 203.2572  1.00271470 38974
SKY MEXICO-1            
1 40664U 15026B   26019.92198365 -.00000220  00000+0  00000+0 0  9998
2 40664   0.0142  64.7689 0002416 255.3148  52.3635  1.00270796 38962
METEOSAT-11 (MSG-4)     
1 40732U 15034A   26019.93949040  .00000077  00000+0  00000+0 0  9997
2 40732   2.8318  71.8750 0000299 162.8537 232.3470  1.00279477  5733
STAR ONE C4             
1 40733U 15034B   26019.49581425 -.00000251  00000+0  00000+0 0  9993
2 40733   0.0354 321.8416 0002273   1.6012 263.9409  1.00271710 38520
WGS F7 (USA 263)        
1 40746U 15036A   26019.82966888  .00000000  00000+0  00000+0 0  9997
2 40746   0.0227  53.5880 0000292 313.2876 226.0420  1.00271150 38381
INTELSAT 34 (IS-34)     
1 40874U 15039A   26019.49867427 -.00000271  00000+0  00000+0 0  9995
2 40874   0.0270 301.5379 0000829 239.8450  61.5209  1.00272169 38138
EUTELSAT 8 WEST B       
1 40875U 15039B   26019.93602371 -.00000052  00000+0  00000+0 0  9997
2 40875   0.0640   5.4990 0004081 293.5104 149.2842  1.00270592 38175
GSAT-6                  
1 40880U 15041A   26019.95396383 -.00000146  00000+0  00000+0 0  9995
2 40880   1.5364  84.5939 0002774 215.8695 244.7717  1.00268856 38116
INMARSAT 5-F3           
1 40882U 15042A   26019.68786877  .00000065  00000+0  00000+0 0  9998
2 40882   0.0176  52.7478 0000685  70.3241  63.2488  1.00273483 38085
MUOS-4                  
1 40887U 15044A   26019.95257715 -.00000080  00000+0  00000+0 0  9997
2 40887   4.0517  41.1787 0055013 357.0773 139.0396  1.00271483 38075
TJS-1                   
1 40892U 15046A   26019.89702350 -.00000142  00000+0  00000+0 0  9997
2 40892   0.0663 264.7933 0002681  83.0887 249.3618  1.00270430 38084
EXPRESS-AM8             
1 40895U 15048A   26019.93481038 -.00000098  00000+0  00000+0 0  9994
2 40895   0.0070  15.7334 0000259 193.4218 232.6836  1.00270772 37851
BEIDOU-3S IGSO-2S       
1 40938U 15053A   26016.74545162 -.00000068  00000+0  00000+0 0  9990
2 40938  49.4536 260.5880 0060566 187.9938  30.9211  1.00262248 37836
SKY MUSTER 1 (NBN1A)    
1 40940U 15054A   26019.96540390 -.00000265  00000+0  00000+0 0  9998
2 40940   0.0148   1.7446 0001671 301.3874 303.9920  1.00270379 37774
ARSAT 2                 
1 40941U 15054B   26019.92155030 -.00000211  00000+0  00000+0 0  9999
2 40941   0.0365 293.9504 0001784   0.0713  76.0307  1.00270924 37814
MORELOS 3               
1 40946U 15056A   26019.91522360 -.00000029  00000+0  00000+0 0  9996
2 40946   3.0800  10.8297 0001543 346.4534 338.3911  1.00272932 37795
APSTAR-9                
1 40982U 15059A   26019.96575057 -.00000252  00000+0  00000+0 0  9993
2 40982   0.0265  57.9291 0002806 192.8291 358.2753  1.00270263 37632
TURKSAT 4B              
1 40984U 15060A   26019.94755045  .00000000  00000+0  00000+0 0  9992
2 40984   0.0234  67.2503 0001838 234.3065 208.8908  1.00268469 37610
ZHONGXING-2C            
1 41021U 15063A   26019.95812385 -.00000309  00000+0  00000+0 0  9993
2 41021   0.1155 257.0596 0007940 333.1190 337.5118  1.00269599 37498
GSAT-15                 
1 41028U 15065A   26019.95613051 -.00000243  00000+0  00000+0 0  9998
2 41028   0.0866 265.4918 0001632 344.2754 307.2627  1.00271018 37314
BADR-7 (ARABSAT-6B)     
1 41029U 15065B   26019.94278376  .00000159  00000+0  00000+0 0  9990
2 41029   0.0364 233.6748 0004240  14.5542 236.4817  1.00270194 37280
LAOSAT 1                
1 41034U 15067A   26019.96297722 -.00000329  00000+0  00000+0 0  9996
2 41034   0.0180 143.3079 0001308 113.3906 337.8024  1.00269012 37373
